{"type": "FeatureCollection", "features": [ {"type": "Feature", "properties": {"norad_id": 33841, "name": "COSMOS 2251 DEB", "group": "cosmos-2251-debris", "lat": 5.6130223269757495, "lon": -93.00806456646313, "alt_km": 753.5504204728086, "timestamp": "2025-12-19T14:48:36.640868+00:00", "meta": {"OBJECT_NAME": "COSMOS 2251 DEB", "OBJECT_ID": "1993-036CJ", "EPOCH": "2025-12-19T05:28:29.368416", "MEAN_MOTION": 14.37869571, "ECCENTRICITY": 0.0020814, "INCLINATION": 74.0378, "RA_OF_ASC_NODE": 266.0959, "ARG_OF_PERICENTER": 345.3271, "MEAN_ANOMALY": 167.8966, "EPHEMERIS_TYPE": 0, "CLASSIFICATION_TYPE": "U", "NORAD_CAT_ID": 33841, "ELEMENT_SET_NO": 999, "REV_AT_EPOCH": 88207, "BSTAR": 0.00016494701, "MEAN_MOTION_DOT": 4.72e-06, "MEAN_MOTION_DDOT": 0}, "tle": {"line1": "1 33841U 93036CJ  25353.22811769  .00000472  00000+0  16495-3 0  9994", "line2": "2 33841  74.0378 266.0959 0020814 345.3271 167.8966 14.37869571882076"}}, "geometry": {"type": "Point", "coordinates": [-93.00806456646313, 5.6130223269757495]}}, {"type": "Feature", "properties": {"norad_id": 33842, "name": "COSMOS 2251 DEB", "group": "cosmos-2251-debris", "lat": 19.852058052604548, "lon": -147.17951079316725, "alt_km": 736.4592271631627, "timestamp": "2025-12-19T14:48:36.640878+00:00", "meta": {"OBJECT_NAME": "COSMOS 2251 DEB", "OBJECT_ID": "1993-036CK", "EPOCH": "2025-12-18T23:44:14.076384", "MEAN_MOTION": 14.42709335, "ECCENTRICITY": 0.00474563, "INCLINATION": 74.0321, "RA_OF_ASC_NODE": 208.0522, "ARG_OF_PERICENTER": 314.1286, "MEAN_ANOMALY": 45.597, "EPHEMERIS_TYPE": 0, "CLASSIFICATION_TYPE": "U", "NORAD_CAT_ID": 33842, "ELEMENT_SET_NO": 999, "REV_AT_EPOCH": 88427, "BSTAR": 0.00021356387, "MEAN_MOTION_DOT": 6.93e-06, "MEAN_MOTION_DDOT": 0}, "tle": {"line1": "1 33842U 93036CK  25352.98905181  .00000693  00000+0  21356-3 0  9996", "line2": "2 33842  74.0321 208.0522 0047456 314.1286  45.5970 14.42709335884276"}}, "geometry": {"type": "Point", "coordinates": [-147.17951079316725, 19.852058052604548]}}, {"type": "Feature", "properties": {"norad_id": 33844, "name": "COSMOS 2251 DEB", "group": "cosmos-2251-debris", "lat": 74.02149337151393, "lon": 126.29960050342756, "alt_km": 742.3496066756998, "timestamp": "2025-12-19T14:48:36.640889+00:00", "meta": {"OBJECT_NAME": "COSMOS 2251 DEB", "OBJECT_ID": "1993-036CM", "EPOCH": "2025-12-19T06:22:50.420640", "MEAN_MOTION": 14.33728638, "ECCENTRICITY": 0.00470766, "INCLINATION": 74.0668, "RA_OF_ASC_NODE": 40.8643, "ARG_OF_PERICENTER": 60.6886, "MEAN_ANOMALY": 15.8589, "EPHEMERIS_TYPE": 0, "CLASSIFICATION_TYPE": "U", "NORAD_CAT_ID": 33844, "ELEMENT_SET_NO": 999, "REV_AT_EPOCH": 87819, "BSTAR": 0.00026015272, "MEAN_MOTION_DOT": 7.06e-06, "MEAN_MOTION_DDOT": 0}, "tle": {"line1": "1 33844U 93036CM  25353.26586135  .00000706  00000+0  26015-3 0  9996", "line2": "2 33844  74.0668  40.8643 0047076  60.6886  15.8589 14.33728638878192"}}, "geometry": {"type": "Point", "coordinates": [126.29960050342756, 74.02149337151393]}}, {"type": "Feature", "properties": {"norad_id": 33848, "name": "COSMOS 2251 DEB", "group": "cosmos-2251-debris", "lat": 14.654711792350408, "lon": 160.55226956959532, "alt_km": 762.801793172257, "timestamp": "2025-12-19T14:48:36.640899+00:00", "meta": {"OBJECT_NAME": "COSMOS 2251 DEB", "OBJECT_ID": "1993-036CR", "EPOCH": "2025-12-19T02:43:53.119200", "MEAN_MOTION": 14.44102483, "ECCENTRICITY": 0.00414877, "INCLINATION": 74.0314, "RA_OF_ASC_NODE": 345.7825, "ARG_OF_PERICENTER": 39.6644, "MEAN_ANOMALY": 29.1972, "EPHEMERIS_TYPE": 0, "CLASSIFICATION_TYPE": "U", "NORAD_CAT_ID": 33848, "ELEMENT_SET_NO": 999, "REV_AT_EPOCH": 87923, "BSTAR": 0.00080740744, "MEAN_MOTION_DOT": 2.769e-05, "MEAN_MOTION_DDOT": 0}, "tle": {"line1": "1 33848U 93036CR  25353.11380925  .00002769  00000+0  80741-3 0  9990", "line2": "2 33848  74.0314 345.7825 0041487  39.6644  29.1972 14.44102483879237"}}, "geometry": {"type": "Point", "coordinates": [160.55226956959532, 14.654711792350408]}}, {"type": "Feature", "properties": {"norad_id": 33892, "name": "COSMOS 2251 DEB", "group": "cosmos-2251-debris", "lat": -59.69395199471649, "lon": 59.69145021671338, "alt_km": 901.5688084711128, "timestamp": "2025-12-19T14:48:36.640910+00:00", "meta": {"OBJECT_NAME": "COSMOS 2251 DEB", "OBJECT_ID": "1993-036CV", "EPOCH": "2025-12-18T17:45:28.585152", "MEAN_MOTION": 14.23358321, "ECCENTRICITY": 0.01125222, "INCLINATION": 73.8026, "RA_OF_ASC_NODE": 91.112, "ARG_OF_PERICENTER": 121.1848, "MEAN_ANOMALY": 1.7764, "EPHEMERIS_TYPE": 0, "CLASSIFICATION_TYPE": "U", "NORAD_CAT_ID": 33892, "ELEMENT_SET_NO": 999, "REV_AT_EPOCH": 87040, "BSTAR": 0.00051518178, "MEAN_MOTION_DOT": 1.221e-05, "MEAN_MOTION_DDOT": 0}, "tle": {"line1": "1 33892U 93036CV  25352.73991418  .00001221  00000+0  51518-3 0  9993", "line2": "2 33892  73.8026  91.1120 0112522 121.1848   1.7764 14.23358321870401"}}, "geometry": {"type": "Point", "coordinates": [59.69145021671338, -59.69395199471649]}}, {"type": "Feature", "properties": {"norad_id": 33894, "name": "COSMOS 2251 DEB", "group": "cosmos-2251-debris", "lat": -16.766239125641025, "lon": 163.47241537412017, "alt_km": 944.0574092399283, "timestamp": "2025-12-19T14:48:36.640921+00:00", "meta": {"OBJECT_NAME": "COSMOS 2251 DEB", "OBJECT_ID": "1993-036CX", "EPOCH": "2025-12-19T01:02:02.974272", "MEAN_MOTION": 13.21318804, "ECCENTRICITY": 0.05792005, "INCLINATION": 73.767, "RA_OF_ASC_NODE": 339.3249, "ARG_OF_PERICENTER": 257.9221, "MEAN_ANOMALY": 95.6429, "EPHEMERIS_TYPE": 0, "CLASSIFICATION_TYPE": "U", "NORAD_CAT_ID": 33894, "ELEMENT_SET_NO": 999, "REV_AT_EPOCH": 80791, "BSTAR": 0.001105682, "MEAN_MOTION_DOT": 1.077e-05, "MEAN_MOTION_DDOT": 0}, "tle": {"line1": "1 33894U 93036CX  25353.04308998  .00001077  00000+0  11057-2 0  9997", "line2": "2 33894  73.7670 339.3249 0579200 257.9221  95.6429 13.21318804807914"}}, "geometry": {"type": "Point", "coordinates": [163.47241537412017, -16.766239125641025]}}, {"type": "Feature", "properties": {"norad_id": 33896, "name": "COSMOS 2251 DEB", "group": "cosmos-2251-debris", "lat": -69.53237087391905, "lon": 15.513259959684964, "alt_km": 790.8971429799531, "timestamp": "2025-12-19T14:48:36.640931+00:00", "meta": {"OBJECT_NAME": "COSMOS 2251 DEB", "OBJECT_ID": "1993-036CZ", "EPOCH": "2025-12-18T21:26:38.970240", "MEAN_MOTION": 14.19052698, "ECCENTRICITY": 0.0126767, "INCLINATION": 73.7662, "RA_OF_ASC_NODE": 145.5109, "ARG_OF_PERICENTER": 320.2244, "MEAN_ANOMALY": 203.3319, "EPHEMERIS_TYPE": 0, "CLASSIFICATION_TYPE": "U", "NORAD_CAT_ID": 33896, "ELEMENT_SET_NO": 999, "REV_AT_EPOCH": 86827, "BSTAR": 0.000343541, "MEAN_MOTION_DOT": 7.5e-06, "MEAN_MOTION_DDOT": 0}, "tle": {"line1": "1 33896U 93036CZ  25352.89350660  .00000750  00000+0  34354-3 0  9997", "line2": "2 33896  73.7662 145.5109 0126767 320.2244 203.3319 14.19052698868270"}}, "geometry": {"type": "Point", "coordinates": [15.513259959684964, -69.53237087391905]}}, {"type": "Feature", "properties": {"norad_id": 33899, "name": "COSMOS 2251 DEB", "group": "cosmos-2251-debris", "lat": -57.94274410086341, "lon": -80.24586730177752, "alt_km": 708.305357728982, "timestamp": "2025-12-19T14:48:36.640942+00:00", "meta": {"OBJECT_NAME": "COSMOS 2251 DEB", "OBJECT_ID": "1993-036DC", "EPOCH": "2025-12-19T05:38:22.450848", "MEAN_MOTION": 14.61243535, "ECCENTRICITY": 0.00563246, "INCLINATION": 74.0545, "RA_OF_ASC_NODE": 73.3203, "ARG_OF_PERICENTER": 134.1353, "MEAN_ANOMALY": 257.766, "EPHEMERIS_TYPE": 0, "CLASSIFICATION_TYPE": "U", "NORAD_CAT_ID": 33899, "ELEMENT_SET_NO": 999, "REV_AT_EPOCH": 88934, "BSTAR": 0.00056972263, "MEAN_MOTION_DOT": 2.844e-05, "MEAN_MOTION_DDOT": 0}, "tle": {"line1": "1 33899U 93036DC  25353.23498207  .00002844  00000+0  56972-3 0  9995", "line2": "2 33899  74.0545  73.3203 0056324 134.1353 257.7660 14.61243535889346"}}, "geometry": {"type": "Point", "coordinates": [-80.24586730177752, -57.94274410086341]}}, {"type": "Feature", "properties": {"norad_id": 33900, "name": "COSMOS 2251 DEB", "group": "cosmos-2251-debris", "lat": -25.29517177989633, "lon": 174.5434475061887, "alt_km": 691.9794954117024, "timestamp": "2025-12-19T14:48:36.640952+00:00", "meta": {"OBJECT_NAME": "COSMOS 2251 DEB", "OBJECT_ID": "1993-036DD", "EPOCH": "2025-12-19T07:46:52.319424", "MEAN_MOTION": 14.58368446, "ECCENTRICITY": 0.00465414, "INCLINATION": 74.0182, "RA_OF_ASC_NODE": 347.3171, "ARG_OF_PERICENTER": 137.5269, "MEAN_ANOMALY": 331.2598, "EPHEMERIS_TYPE": 0, "CLASSIFICATION_TYPE": "U", "NORAD_CAT_ID": 33900, "ELEMENT_SET_NO": 999, "REV_AT_EPOCH": 89132, "BSTAR": 0.00026959172, "MEAN_MOTION_DOT": 1.237e-05, "MEAN_MOTION_DDOT": 0}, "tle": {"line1": "1 33900U 93036DD  25353.32421666  .00001237  00000+0  26959-3 0  9990", "line2": "2 33900  74.0182 347.3171 0046541 137.5269 331.2598 14.58368446891321"}}, "geometry": {"type": "Point", "coordinates": [174.5434475061887, -25.29517177989633]}}, {"type": "Feature", "properties": {"norad_id": 33901, "name": "COSMOS 2251 DEB", "group": "cosmos-2251-debris", "lat": -0.5617665058520818, "lon": -145.10404365466286, "alt_km": 498.3943141533791, "timestamp": "2025-12-19T14:48:36.640962+00:00", "meta": {"OBJECT_NAME": "COSMOS 2251 DEB", "OBJECT_ID": "1993-036DE", "EPOCH": "2025-12-19T02:56:08.950848", "MEAN_MOTION": 15.16598478, "ECCENTRICITY": 0.00304962, "INCLINATION": 73.7756, "RA_OF_ASC_NODE": 35.78, "ARG_OF_PERICENTER": 167.4201, "MEAN_ANOMALY": 192.7762, "EPHEMERIS_TYPE": 0, "CLASSIFICATION_TYPE": "U", "NORAD_CAT_ID": 33901, "ELEMENT_SET_NO": 999, "REV_AT_EPOCH": 89610, "BSTAR": 0.0019812592, "MEAN_MOTION_DOT": 0.00039348, "MEAN_MOTION_DDOT": 0}, "tle": {"line1": "1 33901U 93036DE  25353.12232582  .00039348  00000+0  19813-2 0  9990", "line2": "2 33901  73.7756  35.7800 0030496 167.4201 192.7762 15.16598478896101"}}, "geometry": {"type": "Point", "coordinates": [-145.10404365466286, -0.5617665058520818]}}]}